      2.10          N: GNSS NAV DATA                        RINEX VERSION / TYPE
fic2rin                                 03/25/2024 00:18:13 PGM / RUN BY / DATE
                                                            END OF HEADER
1  24  3 24  1 59 44.0  .175632536411D-03  .216004991671D-11  .000000000000D+00
     .850000000000D+02  .356250000000D+02  .365050920122D-08 -.227405396316D+01
     .162422657013D-05  .129407540662D-01  .117588788271D-04  .515400788689D+04
     .718400000000D+04  .156462192535D-06 -.311086312746D+01 -.577419996262D-07
     .990994091133D+00  .165906250000D+03  .100299925186D+01 -.733423407172D-08
     .227152318949D-09  .100000000000D+01  .230700000000D+04  .000000000000D+00
     .240000000000D+01  .630000000000D+02  .512227416039D-08  .850000000000D+02
     .000000000000D+00  .400000000000D+01
3  24  3 24  1 59 44.0  .269953161478D-03  .221689333557D-10  .000000000000D+00
     .150000000000D+02  .582812500000D+02  .435768151493D-08 -.309771101994D+01
     .303238630295D-05  .522376107983D-02  .420399010181D-05  .515375287056D+04
     .718400000000D+04  .670552253723D-07 -.208296950836D+01 -.111758708954D-06
     .983189730393D+00  .307312500000D+03  .106344154534D+01 -.805676416800D-08
     .290726395636D-09  .100000000000D+01  .230700000000D+04  .000000000000D+00
     .240000000000D+01  .000000000000D+00  .186264514923D-08  .150000000000D+02
     .000000000000D+00  .400000000000D+01
8  24  3 24  1 59 44.0  .760830007493D-04  .258069121628D-10  .000000000000D+00
     .111000000000D+03 -.604375000000D+02  .491377610707D-08  .134248988764D+00
    -.308640301228D-05  .944563862868D-02  .581704080105D-05  .515360331726D+04
     .718400000000D+04  .875443220139D-07  .207095266185D+01  .745058059692D-07
     .953872429301D+00  .263531250000D+03  .344216652611D+00 -.846428114271D-08
    -.374301305437D-09  .100000000000D+01  .230700000000D+04  .000000000000D+00
     .240000000000D+01  .000000000000D+00  .465661287308D-08  .111000000000D+03
     .000000000000D+00  .400000000000D+01
11 24  3 24  6  0  0.0 -.616009347141D-03 -.113686837722D-10  .000000000000D+00
     .102000000000D+03  .322187500000D+02  .413088635371D-08  .147677616033D+01
     .158511102200D-05  .121992058121D-02  .116210430861D-04  .515368479538D+04
     .216000000000D+05 -.316649675369D-07 -.308492004399D+01  .335276126862D-07
     .966547508492D+00  .154187500000D+03 -.249550143044D+01 -.781746848608D-08
     .159292349451D-09  .100000000000D+01  .230700000000D+04  .000000000000D+00
     .240000000000D+01  .000000000000D+00 -.838190317154D-08  .358000000000D+03
     .144000000000D+05  .400000000000D+01
28 24  3 24  6  0  0.0 -.175957567990D-03 -.143245415529D-10  .000000000000D+00
     .118000000000D+03 -.375000000000D+01  .413624371972D-08 -.206744872142D+01
    -.244006514549D-06  .525614130311D-03  .129975378513D-04  .515362729836D+04
     .216000000000D+05  .167638063431D-07 -.242376004048D-01  .260770320892D-07
     .961964001822D+00  .129562500000D+03  .174658830496D+01 -.779996775711D-08
    -.246438836595D-10  .100000000000D+01  .230700000000D+04  .000000000000D+00
     .240000000000D+01  .000000000000D+00 -.931322574615D-08  .886000000000D+03
     .144000000000D+05  .400000000000D+01
18 24  3 24  6  0  0.0 -.581491738558D-03 -.727595761418D-11  .000000000000D+00
     .720000000000D+02  .303750000000D+02  .389516224914D-08  .242121706461D+00
     .158883631229D-05  .390374730341D-02  .125430524349D-04  .515362410736D+04
     .216000000000D+05  .577419996262D-07 -.311440649498D+01  .260770320892D-07
     .974885474453D+00  .145406250000D+03 -.303538686668D+01 -.773817946909D-08
     .153934983439D-09  .100000000000D+01  .230700000000D+04  .000000000000D+00
     .240000000000D+01  .000000000000D+00 -.838190317154D-08  .840000000000D+03
     .144000000000D+05  .400000000000D+01
21 24  3 24  5 59 44.0  .130133703351D-03 -.147792889038D-11  .000000000000D+00
     .200000000000D+01  .126562500000D+02  .411445709794D-08  .214835390923D+01
     .795349478722D-06  .252828212688D-01  .125709921122D-04  .515371659088D+04
     .215840000000D+05  .281259417534D-06  .306018767299D+01  .288709998131D-06
     .962105559627D+00  .132125000000D+03 -.601831296438D+00 -.759995942596D-08
    -.250010413937D-09  .100000000000D+01  .230700000000D+04  .000000000000D+00
     .240000000000D+01  .000000000000D+00 -.102445483208D-07  .200000000000D+01
     .154500000000D+05  .400000000000D+01
25 24  3 24  5 59 44.0  .492092687637D-03  .909494701773D-12  .000000000000D+00
     .500000000000D+01  .599687500000D+02  .501342311491D-08 -.139580525093D+01
     .324845314026D-05  .118178216508D-01  .465475022793D-05  .515359257889D+04
     .215840000000D+05  .283122062683D-06  .103901409767D+01  .169500708580D-06
     .950675970853D+00  .283531250000D+03  .108399613391D+01 -.843820862812D-08
     .310012913282D-09  .100000000000D+01  .230700000000D+04  .000000000000D+00
     .240000000000D+01  .000000000000D+00  .558793544769D-08  .500000000000D+01
     .161400000000D+05  .400000000000D+01
2  24  3 24  5 59 44.0 -.465218443424D-03  .625277607469D-11  .000000000000D+00
     .000000000000D+00  .746875000000D+01  .403016787267D-08  .252561421811D+01
     .366941094398D-06  .160822067410D-01  .121127814054D-04  .515371310425D+04
     .215840000000D+05  .257045030594D-06  .306699198293D+01 -.931322574615D-08
     .967836130122D+00  .145156250000D+03 -.121515231051D+01 -.751102715014D-08
    -.857178562071D-10  .100000000000D+01  .230700000000D+04  .000000000000D+00
     .240000000000D+01  .000000000000D+00 -.176951289177D-07  .000000000000D+00
     .163200000000D+05  .400000000000D+01
16 24  3 24  5 59 44.0 -.333874486387D-03  .898126018001D-11  .000000000000D+00
     .360000000000D+02  .520000000000D+02  .471376777592D-08 -.308309280810D+01
     .258348882198D-05  .139921542723D-01  .434368848801D-05  .515374740791D+04
     .215840000000D+05  .111758708954D-07  .114282784968D+01 -.182539224625D-06
     .962208137980D+00  .296531250000D+03  .833387540816D+00 -.811962392921D-08
     .332871008271D-09  .100000000000D+01  .230700000000D+04  .000000000000D+00
     .240000000000D+01  .000000000000D+00 -.102445483208D-07  .360000000000D+02
     .192000000000D+05  .400000000000D+01
2  24  3 24  7 59 44.0 -.465173274279D-03  .625277607469D-11  .000000000000D+00
     .700000000000D+01  .115312500000D+02  .390694845437D-08 -.270748002440D+01
     .625848770142D-06  .160805557389D-01  .128112733364D-04  .515371627998D+04
     .287840000000D+05  .115483999252D-06  .306693708546D+01  .180676579475D-06
     .967836359801D+00  .127906250000D+03 -.121509199878D+01 -.746173938282D-08
     .942896418278D-10  .100000000000D+01  .230700000000D+04  .000000000000D+00
     .240000000000D+01  .000000000000D+00 -.176951289177D-07  .700000000000D+01
     .216000000000D+05  .400000000000D+01
21 24  3 24  7 59 44.0  .130122527480D-03 -.147792889038D-11  .000000000000D+00
     .300000000000D+01  .150312500000D+02  .395230748661D-08 -.308474349611D+01
     .927597284317D-06  .252823975170D-01  .134594738483D-04  .515371853447D+04
     .287840000000D+05 -.162050127983D-06  .306013182170D+01  .322237610817D-06
     .962105509888D+00  .112406250000D+03 -.601769166307D+00 -.740530846082D-08
     .489306095849D-10  .100000000000D+01  .230700000000D+04  .000000000000D+00
     .240000000000D+01  .000000000000D+00 -.102445483208D-07  .300000000000D+01
     .216000000000D+05  .400000000000D+01
25 24  3 24  7 59 44.0  .492099672556D-03  .909494701773D-12  .000000000000D+00
     .600000000000D+01  .581250000000D+02  .515521473539D-08 -.345599335485D+00
     .313483178616D-05  .118174775271D-01  .487640500069D-05  .515359165001D+04
     .287840000000D+05 -.111758708954D-07  .103895208750D+01  .169500708580D-06
     .950677091448D+00  .280656250000D+03  .108402518600D+01 -.869357640807D-08
     .313941648358D-09  .100000000000D+01  .230700000000D+04  .000000000000D+00
     .240000000000D+01  .000000000000D+00  .558793544769D-08  .600000000000D+01
     .216000000000D+05  .400000000000D+01
